QIANFAN-33              
1 61566U 24185Q   25198.72383897  .00000299  00000+0  20695-3 0  9990
2 61566  88.9807  95.3274 0009183  68.6987 291.5169 13.96392895 48506
QIANFAN-34              
1 61567U 24185R   25198.72505328  .00000321  00000+0  20105-3 0  9998
2 61567  88.9786  95.0860 0008237  76.5172 283.6925 14.02147766 48644
QIANFAN-35              
1 61568U 24185S   25198.75093277  .00000476  00000+0  18729-3 0  9997
2 61568  88.9807  94.2669 0009061  60.0626 300.1467 14.27637963 49068
QIANFAN-36              
1 61569U 24185T   25198.74396997  .00000078  00000+0  95292-4 0  9991
2 61569  88.9797  96.4761 0008001 103.2145 256.9902 13.55541488 47924
QIANFAN-37              
1 62238U 24232B   25198.78860520  .00000132  00000+0  18558-3 0  9990
2 62238  88.9935  56.3046 0002184 101.6358 258.5039 13.50963176 79197
QIANFAN-38              
1 62239U 24232C   25198.81326898  .00000063  00000+0  78597-4 0  9993
2 62239  88.9941  56.2078 0012583 262.9681  97.0039 13.50951971 79256
QIANFAN-39              
1 62240U 24232D   25198.77970303  .00000207  00000+0  81782-4 0  9996
2 62240  88.9937  54.2679 0015181 195.5401 164.5328 14.25223912 80316
QIANFAN-40              
1 62241U 24232E   25198.62400349  .00000060  00000+0  74230-4 0  9996
2 62241  88.9968  55.7700 0011645 272.9933  86.9886 13.50958185 79591
